{
  "type": "FeatureCollection",
  "features": [
    {
      "type": "Feature",
      "properties": {
        "norad_id": 33835,
        "name": "COSMOS 2251 DEB",
        "group": "cosmos-2251-debris",
        "lat": -40.280545540383514,
        "lon": 88.60567154118543,
        "alt_km": 728.8398536742297,
        "timestamp": "2025-12-11T22:43:47.663305+00:00",
        "meta_object_name": "COSMOS 2251 DEB",
        "meta_object_id": "1993-036CC",
        "meta_epoch": "2025-12-11T14:48:20.209248",
        "meta_mean_motion": 14.62231732,
        "meta_eccentricity": 0.00548182,
        "meta_inclination": 74.0571,
        "meta_ra_of_asc_node": 103.2567,
        "meta_arg_of_pericenter": 157.0707,
        "meta_mean_anomaly": 223.2071,
        "meta_ephemeris_type": 0,
        "meta_classification_type": "U",
        "meta_norad_cat_id": 33835,
        "meta_element_set_no": 999,
        "meta_rev_at_epoch": 88773,
        "meta_bstar": 0.0018288179,
        "meta_mean_motion_dot": 9.4e-05,
        "meta_mean_motion_ddot": 0,
        "tle_line1": "1 33835U 93036CC  25345.61690057  .00009400  00000+0  18288-2 0  9997",
        "tle_line2": "2 33835  74.0571 103.2567 0054818 157.0707 223.2071 14.62231732887736"
      },
      "geometry": {
        "type": "Point",
        "coordinates": [
          88.60567154118543,
          -40.280545540383514
        ]
      }
    },
    {
      "type": "Feature",
      "properties": {
        "norad_id": 33836,
        "name": "COSMOS 2251 DEB",
        "group": "cosmos-2251-debris",
        "lat": -63.17673724457365,
        "lon": -134.06574141527486,
        "alt_km": 653.1940885484701,
        "timestamp": "2025-12-11T22:43:47.663315+00:00",
        "meta_object_name": "COSMOS 2251 DEB",
        "meta_object_id": "1993-036CD",
        "meta_epoch": "2025-12-11T12:28:12.220032",
        "meta_mean_motion": 14.79585866,
        "meta_eccentricity": 0.00225183,
        "meta_inclination": 73.9973,
        "meta_ra_of_asc_node": 261.3583,
        "meta_arg_of_pericenter": 115.1344,
        "meta_mean_anomaly": 60.6016,
        "meta_ephemeris_type": 0,
        "meta_classification_type": "U",
        "meta_norad_cat_id": 33836,
        "meta_element_set_no": 999,
        "meta_rev_at_epoch": 64070,
        "meta_bstar": 0.0025191709,
        "meta_mean_motion_dot": 0.00018974,
        "meta_mean_motion_ddot": 0,
        "tle_line1": "1 33836U 93036CD  25345.51958588  .00018974  00000+0  25192-2 0  9991",
        "tle_line2": "2 33836  73.9973 261.3583 0022518 115.1344  60.6016 14.79585866640703"
      },
      "geometry": {
        "type": "Point",
        "coordinates": [
          -134.06574141527486,
          -63.17673724457365
        ]
      }
    },
    {
      "type": "Feature",
      "properties": {
        "norad_id": 33837,
        "name": "COSMOS 2251 DEB",
        "group": "cosmos-2251-debris",
        "lat": -6.23276177866056,
        "lon": 55.296640702873255,
        "alt_km": 719.9829001482994,
        "timestamp": "2025-12-11T22:43:47.663326+00:00",
        "meta_object_name": "COSMOS 2251 DEB",
        "meta_object_id": "1993-036CE",
        "meta_epoch": "2025-12-11T11:10:27.621408",
        "meta_mean_motion": 14.50698213,
        "meta_eccentricity": 0.00358414,
        "meta_inclination": 74.0132,
        "meta_ra_of_asc_node": 57.9969,
        "meta_arg_of_pericenter": 279.9119,
        "meta_mean_anomaly": 79.7997,
        "meta_ephemeris_type": 0,
        "meta_classification_type": "U",
        "meta_norad_cat_id": 33837,
        "meta_element_set_no": 999,
        "meta_rev_at_epoch": 88777,
        "meta_bstar": 0.00045173248,
        "meta_mean_motion_dot": 1.762e-05,
        "meta_mean_motion_ddot": 0,
        "tle_line1": "1 33837U 93036CE  25345.46559747  .00001762  00000+0  45173-3 0  9999",
        "tle_line2": "2 33837  74.0132  57.9969 0035841 279.9119  79.7997 14.50698213887771"
      },
      "geometry": {
        "type": "Point",
        "coordinates": [
          55.296640702873255,
          -6.23276177866056
        ]
      }
    },
    {
      "type": "Feature",
      "properties": {
        "norad_id": 33838,
        "name": "COSMOS 2251 DEB",
        "group": "cosmos-2251-debris",
        "lat": -49.50219943873177,
        "lon": -9.118485755999954,
        "alt_km": 722.7849690381681,
        "timestamp": "2025-12-11T22:43:47.663336+00:00",
        "meta_object_name": "COSMOS 2251 DEB",
        "meta_object_id": "1993-036CF",
        "meta_epoch": "2025-12-11T11:58:55.709760",
        "meta_mean_motion": 14.48358189,
        "meta_eccentricity": 0.00274601,
        "meta_inclination": 74.0363,
        "meta_ra_of_asc_node": 152.1365,
        "meta_arg_of_pericenter": 274.1798,
        "meta_mean_anomaly": 144.1821,
        "meta_ephemeris_type": 0,
        "meta_classification_type": "U",
        "meta_norad_cat_id": 33838,
        "meta_element_set_no": 999,
        "meta_rev_at_epoch": 88551,
        "meta_bstar": 0.00071940079,
        "meta_mean_motion_dot": 2.678e-05,
        "meta_mean_motion_ddot": 0,
        "tle_line1": "1 33838U 93036CF  25345.49925590  .00002678  00000+0  71940-3 0  9994",
        "tle_line2": "2 33838  74.0363 152.1365 0027460 274.1798 144.1821 14.48358189885519"
      },
      "geometry": {
        "type": "Point",
        "coordinates": [
          -9.118485755999954,
          -49.50219943873177
        ]
      }
    },
    {
      "type": "Feature",
      "properties": {
        "norad_id": 33839,
        "name": "COSMOS 2251 DEB",
        "group": "cosmos-2251-debris",
        "lat": 61.77286611764235,
        "lon": -4.215585751397035,
        "alt_km": 726.1301742696569,
        "timestamp": "2025-12-11T22:43:47.663347+00:00",
        "meta_object_name": "COSMOS 2251 DEB",
        "meta_object_id": "1993-036CG",
        "meta_epoch": "2025-12-11T14:07:47.371872",
        "meta_mean_motion": 14.64415595,
        "meta_eccentricity": 0.00850837,
        "meta_inclination": 74.0389,
        "meta_ra_of_asc_node": 208.6916,
        "meta_arg_of_pericenter": 321.0222,
        "meta_mean_anomaly": 63.7471,
        "meta_ephemeris_type": 0,
        "meta_classification_type": "U",
        "meta_norad_cat_id": 33839,
        "meta_element_set_no": 999,
        "meta_rev_at_epoch": 89563,
        "meta_bstar": 0.0003645263,
        "meta_mean_motion_dot": 1.999e-05,
        "meta_mean_motion_ddot": 0,
        "tle_line1": "1 33839U 93036CG  25345.58874273  .00001999  00000+0  36453-3 0  9991",
        "tle_line2": "2 33839  74.0389 208.6916 0085083 321.0222  63.7471 14.64415595895630"
      },
      "geometry": {
        "type": "Point",
        "coordinates": [
          -4.215585751397035,
          61.77286611764235
        ]
      }
    },
    {
      "type": "Feature",
      "properties": {
        "norad_id": 33841,
        "name": "COSMOS 2251 DEB",
        "group": "cosmos-2251-debris",
        "lat": -71.62758906119174,
        "lon": -140.01613445586992,
        "alt_km": 770.1632515158935,
        "timestamp": "2025-12-11T22:43:47.663358+00:00",
        "meta_object_name": "COSMOS 2251 DEB",
        "meta_object_id": "1993-036CJ",
        "meta_epoch": "2025-12-11T13:55:02.752608",
        "meta_mean_motion": 14.37858196,
        "meta_eccentricity": 0.00204835,
        "meta_inclination": 74.0378,
        "meta_ra_of_asc_node": 280.1772,
        "meta_arg_of_pericenter": 0.8144,
        "meta_mean_anomaly": 178.7397,
        "meta_ephemeris_type": 0,
        "meta_classification_type": "U",
        "meta_norad_cat_id": 33841,
        "meta_element_set_no": 999,
        "meta_rev_at_epoch": 88097,
        "meta_bstar": 0.00039712087,
        "meta_mean_motion_dot": 1.174e-05,
        "meta_mean_motion_ddot": 0,
        "tle_line1": "1 33841U 93036CJ  25345.57989297  .00001174  00000+0  39712-3 0  9992",
        "tle_line2": "2 33841  74.0378 280.1772 0020483   0.8144 178.7397 14.37858196880977"
      },
      "geometry": {
        "type": "Point",
        "coordinates": [
          -140.01613445586992,
          -71.62758906119174
        ]
      }
    },
    {
      "type": "Feature",
      "properties": {
        "norad_id": 33842,
        "name": "COSMOS 2251 DEB",
        "group": "cosmos-2251-debris",
        "lat": 18.826587807615574,
        "lon": 35.5215305498414,
        "alt_km": 782.46938107591,
        "timestamp": "2025-12-11T22:43:47.663369+00:00",
        "meta_object_name": "COSMOS 2251 DEB",
        "meta_object_id": "1993-036CK",
        "meta_epoch": "2025-12-11T08:40:26.048640",
        "meta_mean_motion": 14.42693916,
        "meta_eccentricity": 0.00472524,
        "meta_inclination": 74.033,
        "meta_ra_of_asc_node": 222.2101,
        "meta_arg_of_pericenter": 329.8237,
        "meta_mean_anomaly": 30.0199,
        "meta_ephemeris_type": 0,
        "meta_classification_type": "U",
        "meta_norad_cat_id": 33842,
        "meta_element_set_no": 999,
        "meta_rev_at_epoch": 88317,
        "meta_bstar": 0.00047730252,
        "meta_mean_motion_dot": 1.583e-05,
        "meta_mean_motion_ddot": 0,
        "tle_line1": "1 33842U 93036CK  25345.36141260  .00001583  00000+0  47730-3 0  9993",
        "tle_line2": "2 33842  74.0330 222.2101 0047252 329.8237  30.0199 14.42693916883177"
      },
      "geometry": {
        "type": "Point",
        "coordinates": [
          35.5215305498414,
          18.826587807615574
        ]
      }
    }
  ]
}